{
  "links" : {
    "next" : "https://api.nasa.gov/neo/rest/v1/feed?start_date=2001-07-09&end_date=2001-07-09&detailed=true&api_key=t0TVs3DtDT2H8Oy2Zy8m2eVrNsAVKAexjcZXUckd",
    "prev" : "https://api.nasa.gov/neo/rest/v1/feed?start_date=2001-07-07&end_date=2001-07-07&detailed=true&api_key=t0TVs3DtDT2H8Oy2Zy8m2eVrNsAVKAexjcZXUckd",
    "self" : "https://api.nasa.gov/neo/rest/v1/feed?start_date=2001-07-08&end_date=2001-07-08&detailed=true&api_key=t0TVs3DtDT2H8Oy2Zy8m2eVrNsAVKAexjcZXUckd"
  },
  "element_count" : 7,
  "near_earth_objects" : {
    "2001-07-08" : [ {
      "links" : {
        "self" : "https://api.nasa.gov/neo/rest/v1/neo/3761394?api_key=t0TVs3DtDT2H8Oy2Zy8m2eVrNsAVKAexjcZXUckd"
      },
      "neo_reference_id" : "3761394",
      "name" : "(2016 UA6)",
      "nasa_jpl_url" : "http://ssd.jpl.nasa.gov/sbdb.cgi?sstr=3761394",
      "absolute_magnitude_h" : 25.8,
      "estimated_diameter" : {
        "kilometers" : {
          "estimated_diameter_min" : 0.0183888672,
          "estimated_diameter_max" : 0.0411187571
        },
        "meters" : {
          "estimated_diameter_min" : 18.388867207,
          "estimated_diameter_max" : 41.1187571041
        },
        "miles" : {
          "estimated_diameter_min" : 0.0114263088,
          "estimated_diameter_max" : 0.0255500032
        },
        "feet" : {
          "estimated_diameter_min" : 60.3309310875,
          "estimated_diameter_max" : 134.9040630575
        }
      },
      "is_potentially_hazardous_asteroid" : false,
      "close_approach_data" : [ {
        "close_approach_date" : "2001-07-08",
        "epoch_date_close_approach" : 994575600000,
        "relative_velocity" : {
          "kilometers_per_second" : "17.5333995686",
          "kilometers_per_hour" : "63120.2384467966",
          "miles_per_hour" : "39220.4614948998"
        },
        "miss_distance" : {
          "astronomical" : "0.4475201396",
          "lunar" : "174.0853271484",
          "kilometers" : "66948060",
          "miles" : "41599596"
        },
        "orbiting_body" : "Earth"
      } ],
      "orbital_data" : {
        "orbit_id" : "5",
        "orbit_determination_date" : "2017-04-06 08:22:51",
        "orbit_uncertainty" : "6",
        "minimum_orbit_intersection" : ".0427449",
        "jupiter_tisserand_invariant" : "6.288",
        "epoch_osculation" : "2458000.5",
        "eccentricity" : ".1841362581086677",
        "semi_major_axis" : ".9518606430250496",
        "inclination" : "12.15731792550923",
        "ascending_node_longitude" : "206.9549893206024",
        "orbital_period" : "339.2020608831951",
        "perihelion_distance" : ".7765885859775066",
        "perihelion_argument" : "311.7207967985387",
        "aphelion_distance" : "1.127132700072593",
        "perihelion_time" : "2458127.581177548735",
        "mean_anomaly" : "225.1269281842642",
        "mean_motion" : "1.061314306471642",
        "equinox" : "J2000"
      }
    } ]
  }
}